start=new Date('2022-04-17T00:00:00.000Z').valueOf();
sats=[{"GP_ID":"201423279","RA_OF_ASC_NODE":"258.4951","CLASSIFICATION_TYPE":"U","INCLINATION":"53.2171","REV_AT_EPOCH":"368","EPOCH":"2022-04-16T22:00:01.999584","SEMIMAJOR_AXIS":"6820.477","MEAN_ELEMENT_THEORY":"SGP4","FILE":"3404767","PERIOD":"93.429","APOAPSIS":"443.288","BSTAR":"-0.01833000000000","SITE":"AFWTR","OBJECT_TYPE":"PAYLOAD","TLE_LINE2":"2 51792  53.2171 258.4951 0001387  54.4863  71.7019 15.41276739  3685","TIME_SYSTEM":"UTC","PERIAPSIS":"441.396","ECCENTRICITY":"0.00013870","REF_FRAME":"TEME","CENTER_NAME":"EARTH","MEAN_MOTION_DDOT":"0.0000000000000","OBJECT_NAME":"STARLINK-3626","ARG_OF_PERICENTER":"54.4863","RCS_SIZE":"LARGE","TLE_LINE1":"1 51792U 22017AA  22106.91668981 -.00716258  00000-0 -18330-1 0  9992","MEAN_ANOMALY":"71.7019","ELEMENT_SET_NO":"999","LAUNCH_DATE":"2022-02-25","NORAD_CAT_ID":"51792","MEAN_MOTION_DOT":"-0.00716258","MEAN_MOTION":"15.41276739","COUNTRY_CODE":"US","OBJECT_ID":"2022-017AA","DECAY_DATE":null,"EPHEMERIS_TYPE":"0"},{"EPOCH":"2022-04-16T22:00:01.999584","REV_AT_EPOCH":"368","SEMIMAJOR_AXIS":"6821.985","MEAN_ELEMENT_THEORY":"SGP4","GP_ID":"201423725","RA_OF_ASC_NODE":"258.4985","CLASSIFICATION_TYPE":"U","INCLINATION":"53.2171","OBJECT_TYPE":"PAYLOAD","TLE_LINE2":"2 51793  53.2171 258.4985 0001236  60.5082  24.3994 15.40765827  3683","TIME_SYSTEM":"UTC","PERIAPSIS":"443.007","ECCENTRICITY":"0.00012360","FILE":"3404767","APOAPSIS":"444.693","PERIOD":"93.460","BSTAR":"-0.01865500000000","SITE":"AFWTR","TLE_LINE1":"1 51793U 22017AB  22106.91668981 -.00716571  00000-0 -18655-1 0  9991","MEAN_ANOMALY":"24.3994","ELEMENT_SET_NO":"999","LAUNCH_DATE":"2022-02-25","REF_FRAME":"TEME","CENTER_NAME":"EARTH","MEAN_MOTION_DDOT":"0.0000000000000","OBJECT_NAME":"STARLINK-3633","ARG_OF_PERICENTER":"60.5082","RCS_SIZE":"LARGE","OBJECT_ID":"2022-017AB","DECAY_DATE":null,"EPHEMERIS_TYPE":"0","NORAD_CAT_ID":"51793","MEAN_MOTION_DOT":"-0.00716571","COUNTRY_CODE":"US","MEAN_MOTION":"15.40765827"},{"SEMIMAJOR_AXIS":"6819.724","REV_AT_EPOCH":"366","EPOCH":"2022-04-16T22:00:01.999584","MEAN_ELEMENT_THEORY":"SGP4","INCLINATION":"53.2172","RA_OF_ASC_NODE":"258.4930","CLASSIFICATION_TYPE":"U","GP_ID":"201423903","TIME_SYSTEM":"UTC","PERIAPSIS":"440.640","OBJECT_TYPE":"PAYLOAD","TLE_LINE2":"2 51794  53.2172 258.4930 0001391  57.3343  89.2638 15.41532134  3668","ECCENTRICITY":"0.00013910","FILE":"3404767","SITE":"AFWTR","PERIOD":"93.414","APOAPSIS":"442.537","BSTAR":"-0.01816300000000","TLE_LINE1":"1 51794U 22017AC  22106.91668981 -.00715863  00000-0 -18163-1 0  9999","MEAN_ANOMALY":"89.2638","LAUNCH_DATE":"2022-02-25","ELEMENT_SET_NO":"999","CENTER_NAME":"EARTH","MEAN_MOTION_DDOT":"0.0000000000000","REF_FRAME":"TEME","RCS_SIZE":"LARGE","OBJECT_NAME":"STARLINK-3573","ARG_OF_PERICENTER":"57.3343","DECAY_DATE":null,"OBJECT_ID":"2022-017AC","EPHEMERIS_TYPE":"0","MEAN_MOTION_DOT":"-0.00715863","NORAD_CAT_ID":"51794","MEAN_MOTION":"15.41532134","COUNTRY_CODE":"US"},{"MEAN_MOTION":"15.41404409","COUNTRY_CODE":"US","NORAD_CAT_ID":"51795","MEAN_MOTION_DOT":"-0.00715978","EPHEMERIS_TYPE":"0","OBJECT_ID":"2022-017AD","DECAY_DATE":null,"ARG_OF_PERICENTER":"54.9111","OBJECT_NAME":"STARLINK-3586","RCS_SIZE":"LARGE","REF_FRAME":"TEME","MEAN_MOTION_DDOT":"0.0000000000000","CENTER_NAME":"EARTH","LAUNCH_DATE":"2022-02-25","ELEMENT_SET_NO":"999","MEAN_ANOMALY":"81.5013","TLE_LINE1":"1 51795U 22017AD  22106.91668981 -.00715978  00000-0 -18244-1 0  9997","BSTAR":"-0.01824400000000","PERIOD":"93.421","APOAPSIS":"442.931","SITE":"AFWTR","FILE":"3404767","ECCENTRICITY":"0.00014150","TLE_LINE2":"2 51795  53.2172 258.4940 0001415  54.9111  81.5013 15.41404409  3680","OBJECT_TYPE":"PAYLOAD","PERIAPSIS":"441.000","TIME_SYSTEM":"UTC","GP_ID":"201423813","CLASSIFICATION_TYPE":"U","RA_OF_ASC_NODE":"258.4940","INCLINATION":"53.2172","MEAN_ELEMENT_THEORY":"SGP4","REV_AT_EPOCH":"368","EPOCH":"2022-04-16T22:00:01.999584","SEMIMAJOR_AXIS":"6820.101"},{"TLE_LINE2":"2 51796  53.2172 258.4897 0001418  45.1779 310.0923 15.39540208  3671","OBJECT_TYPE":"PAYLOAD","PERIAPSIS":"446.502","TIME_SYSTEM":"UTC","ECCENTRICITY":"0.00014180","FILE":"3404767","BSTAR":"-0.01944200000000","APOAPSIS":"448.438","PERIOD":"93.534","SITE":"AFWTR","REV_AT_EPOCH":"367","EPOCH":"2022-04-16T22:00:01.999584","SEMIMAJOR_AXIS":"6825.605","MEAN_ELEMENT_THEORY":"SGP4","GP_ID":"201423635","CLASSIFICATION_TYPE":"U","RA_OF_ASC_NODE":"258.4897","INCLINATION":"53.2172","OBJECT_ID":"2022-017AE","DECAY_DATE":null,"EPHEMERIS_TYPE":"0","NORAD_CAT_ID":"51796","MEAN_MOTION_DOT":"-0.00717001","COUNTRY_CODE":"US","MEAN_MOTION":"15.39540208","TLE_LINE1":"1 51796U 22017AE  22106.91668981 -.00717001  00000-0 -19442-1 0  9998","LAUNCH_DATE":"2022-02-25","ELEMENT_SET_NO":"999","MEAN_ANOMALY":"310.0923","REF_FRAME":"TEME","MEAN_MOTION_DDOT":"0.0000000000000","CENTER_NAME":"EARTH","ARG_OF_PERICENTER":"45.1779","OBJECT_NAME":"STARLINK-3630","RCS_SIZE":"LARGE"},{"ECCENTRICITY":"0.00012490","OBJECT_TYPE":"PAYLOAD","TLE_LINE2":"2 51797  53.2171 258.4961 0001249  65.7977  50.1280 15.41149007  3687","TIME_SYSTEM":"UTC","PERIAPSIS":"441.867","APOAPSIS":"443.571","PERIOD":"93.437","BSTAR":"-0.01840900000000","SITE":"AFWTR","FILE":"3404767","MEAN_ELEMENT_THEORY":"SGP4","REV_AT_EPOCH":"368","EPOCH":"2022-04-16T22:00:01.999584","SEMIMAJOR_AXIS":"6820.854","GP_ID":"201423371","CLASSIFICATION_TYPE":"U","RA_OF_ASC_NODE":"258.4961","INCLINATION":"53.2171","EPHEMERIS_TYPE":"0","OBJECT_ID":"2022-017AF","DECAY_DATE":null,"COUNTRY_CODE":"US","MEAN_MOTION":"15.41149007","NORAD_CAT_ID":"51797","MEAN_MOTION_DOT":"-0.00716257","MEAN_ANOMALY":"50.1280","ELEMENT_SET_NO":"999","LAUNCH_DATE":"2022-02-25","TLE_LINE1":"1 51797U 22017AF  22106.91668981 -.00716257  00000-0 -18409-1 0  9993","OBJECT_NAME":"STARLINK-3627","ARG_OF_PERICENTER":"65.7977","RCS_SIZE":"LARGE","REF_FRAME":"TEME","CENTER_NAME":"EARTH","MEAN_MOTION_DDOT":"0.0000000000000"},{"COUNTRY_CODE":"US","MEAN_MOTION":"15.39668105","MEAN_MOTION_DOT":"-0.00717223","NORAD_CAT_ID":"51798","EPHEMERIS_TYPE":"0","DECAY_DATE":null,"OBJECT_ID":"2022-017AG","RCS_SIZE":"LARGE","ARG_OF_PERICENTER":"41.6212","OBJECT_NAME":"STARLINK-3634","MEAN_MOTION_DDOT":"0.0000000000000","CENTER_NAME":"EARTH","REF_FRAME":"TEME","LAUNCH_DATE":"2022-02-25","ELEMENT_SET_NO":"999","MEAN_ANOMALY":"324.3952","TLE_LINE1":"1 51798U 22017AG  22106.91668981 -.00717223  00000-0 -19366-1 0  9991","SITE":"AFWTR","BSTAR":"-0.01936600000000","PERIOD":"93.527","APOAPSIS":"448.118","FILE":"3404767","ECCENTRICITY":"0.00015040","TIME_SYSTEM":"UTC","PERIAPSIS":"446.065","TLE_LINE2":"2 51798  53.2172 258.4898 0001504  41.6212 324.3952 15.39668105  3669","OBJECT_TYPE":"PAYLOAD","CLASSIFICATION_TYPE":"U","RA_OF_ASC_NODE":"258.4898","INCLINATION":"53.2172","GP_ID":"201423549","MEAN_ELEMENT_THEORY":"SGP4","SEMIMAJOR_AXIS":"6825.227","EPOCH":"2022-04-16T22:00:01.999584","REV_AT_EPOCH":"366"},{"PERIOD":"93.406","APOAPSIS":"442.298","BSTAR":"-0.01808200000000","SITE":"AFWTR","FILE":"3404767","ECCENTRICITY":"0.00015930","OBJECT_TYPE":"PAYLOAD","TLE_LINE2":"2 51799  53.2172 258.4917 0001593  45.6078 111.1376 15.41659854  3660","TIME_SYSTEM":"UTC","PERIAPSIS":"440.126","GP_ID":"201423458","INCLINATION":"53.2172","RA_OF_ASC_NODE":"258.4917","CLASSIFICATION_TYPE":"U","MEAN_ELEMENT_THEORY":"SGP4","EPOCH":"2022-04-16T22:00:01.999584","REV_AT_EPOCH":"366","SEMIMAJOR_AXIS":"6819.347","MEAN_MOTION":"15.41659854","COUNTRY_CODE":"US","NORAD_CAT_ID":"51799","MEAN_MOTION_DOT":"-0.00715769","EPHEMERIS_TYPE":"0","OBJECT_ID":"2022-017AH","DECAY_DATE":null,"OBJECT_NAME":"STARLINK-3637","ARG_OF_PERICENTER":"45.6078","RCS_SIZE":"LARGE","REF_FRAME":"TEME","CENTER_NAME":"EARTH","MEAN_MOTION_DDOT":"0.0000000000000","MEAN_ANOMALY":"111.1376","LAUNCH_DATE":"2022-02-25","ELEMENT_SET_NO":"999","TLE_LINE1":"1 51799U 22017AH  22106.91668981 -.00715769  00000-0 -18082-1 0  9999"},{"SITE":"AFWTR","BSTAR":"-0.01922000000000","APOAPSIS":"447.335","PERIOD":"93.513","FILE":"3404767","ECCENTRICITY":"0.00013140","PERIAPSIS":"445.542","TIME_SYSTEM":"UTC","TLE_LINE2":"2 51800  53.2172 258.4895 0001314  51.3940 333.3092 15.39889269  3677","OBJECT_TYPE":"PAYLOAD","CLASSIFICATION_TYPE":"U","INCLINATION":"53.2172","RA_OF_ASC_NODE":"258.4895","GP_ID":"201423280","MEAN_ELEMENT_THEORY":"SGP4","SEMIMAJOR_AXIS":"6824.573","EPOCH":"2022-04-16T22:00:01.999584","REV_AT_EPOCH":"367","COUNTRY_CODE":"US","MEAN_MOTION":"15.39889269","MEAN_MOTION_DOT":"-0.00717037","NORAD_CAT_ID":"51800","EPHEMERIS_TYPE":"0","DECAY_DATE":null,"OBJECT_ID":"2022-017AJ","RCS_SIZE":"LARGE","ARG_OF_PERICENTER":"51.3940","OBJECT_NAME":"STARLINK-3600","MEAN_MOTION_DDOT":"0.0000000000000","CENTER_NAME":"EARTH","REF_FRAME":"TEME","ELEMENT_SET_NO":"999","LAUNCH_DATE":"2022-02-25","MEAN_ANOMALY":"333.3092","TLE_LINE1":"1 51800U 22017AJ  22106.91668981 -.00717037  00000-0 -19220-1 0  9997"},{"PERIOD":"93.542","APOAPSIS":"448.803","BSTAR":"-0.01952300000000","SITE":"AFWTR","FILE":"3404767","ECCENTRICITY":"0.00013990","OBJECT_TYPE":"PAYLOAD","TLE_LINE2":"2 51801  53.2172 258.4896 0001399  47.7065 296.7793 15.39412381  3676","PERIAPSIS":"446.893","TIME_SYSTEM":"UTC","GP_ID":"201423726","RA_OF_ASC_NODE":"258.4896","INCLINATION":"53.2172","CLASSIFICATION_TYPE":"U","MEAN_ELEMENT_THEORY":"SGP4","EPOCH":"2022-04-16T22:00:01.999584","REV_AT_EPOCH":"367","SEMIMAJOR_AXIS":"6825.983","COUNTRY_CODE":"US","MEAN_MOTION":"15.39412381","NORAD_CAT_ID":"51801","MEAN_MOTION_DOT":"-0.00716952","EPHEMERIS_TYPE":"0","OBJECT_ID":"2022-017AK","DECAY_DATE":null,"OBJECT_NAME":"STARLINK-3592","ARG_OF_PERICENTER":"47.7065","RCS_SIZE":"LARGE","REF_FRAME":"TEME","CENTER_NAME":"EARTH","MEAN_MOTION_DDOT":"0.0000000000000","MEAN_ANOMALY":"296.7793","ELEMENT_SET_NO":"999","LAUNCH_DATE":"2022-02-25","TLE_LINE1":"1 51801U 22017AK  22106.91668981 -.00716952  00000-0 -19523-1 0  9999"}];
